{"spkid": "50766657", "covariance": {"labels": ["e", "q", "tp", "node", "peri", "i"], "elements": [{"label": "e", "units": null, "value": ".177505952832943", "title": "eccentricity", "sigma": 1.24823928864203e-06, "name": "e"}, {"sigma": 1.26446746424059e-06, "name": "q", "title": "perihelion distance", "value": ".8052551411866136", "units": "au", "label": "q"}, {"title": "time of perihelion passage", "value": "2457878.283095270521", "units": "TDB", "name": "tp", "sigma": 8.02503758818257e-05, "label": "tp"}, {"units": "deg", "value": "318.5006251158907", "title": "longitude of the ascending node", "sigma": 1.67102475807691e-05, "name": "om", "label": "node"}, {"units": "deg", "title": "argument of perihelion", "value": "286.3849677326243", "sigma": 7.54569929069527e-05, "name": "w", "label": "peri"}, {"name": "i", "sigma": 9.50343575141893e-05, "units": "deg", "title": "inclination", "value": "13.74794800658625", "label": "i"}], "data": [["1.558101321709564E-12", "-1.577015023655865E-12", "-9.557449684765237E-11", "-1.626953632469148E-11", "8.699459615415368E-11", "1.167052276681857E-10"], ["-1.577015023655865E-12", "1.598877968123033E-12", "9.591467961335322E-11", "1.645670514132031E-11", "-8.921216240955247E-11", "-1.181461414256154E-10"], ["-9.557449684765237E-11", "9.591467961335322E-11", "6.440122829174315E-9", "9.992908043707965E-10", "-4.706662894866508E-9", "-6.966519428545452E-9"], ["-1.626953632469148E-11", "1.645670514132031E-11", "9.992908043707965E-10", "2.792323742106004E-10", "-1.010917094288174E-9", "-1.326171734724007E-9"], ["8.699459615415368E-11", "-8.921216240955247E-11", "-4.706662894866508E-9", "-1.010917094288174E-9", "5.693757778559917E-9", "6.783841813546128E-9"], ["1.167052276681857E-10", "-1.181461414256154E-10", "-6.966519428545452E-9", "-1.326171734724007E-9", "6.783841813546128E-9", "9.031529108134747E-9"]], "epoch": "2457788.5"}, "elements": [{"title": "eccentricity", "value": ".1775409902251912", "units": null, "name": "e", "sigma": "1.2502E-6", "label": "e"}, {"sigma": "8.2193E-8", "name": "a", "units": "au", "title": "semi-major axis", "value": ".9797458396464455", "label": "a"}, {"title": "perihelion distance", "value": ".8058007931066041", "units": "au", "name": "q", "sigma": "1.272E-6", "label": "q"}, {"label": "i", "sigma": "9.5269E-5", "name": "i", "units": "deg", "title": "inclination; angle with respect to x-y ecliptic plane", "value": "13.73209411675036"}, {"label": "node", "units": "deg", "value": "318.432342078723", "title": "longitude of the ascending node", "sigma": "1.646E-5", "name": "om"}, {"title": "argument of perihelion", "value": "286.284187153346", "units": "deg", "name": "w", "sigma": "8.1766E-5", "label": "peri"}, {"name": "ma", "sigma": ".00048277", "units": "deg", "title": "mean anomaly", "value": "136.8657437235503", "label": "M"}, {"label": "tp", "units": "TDB", "value": "2461065.833110265915", "title": "time of perihelion passage", "sigma": ".00045826", "name": "tp"}, {"units": "d", "value": "354.2163216691654", "title": "sidereal orbital period", "sigma": "4.4574E-5", "name": "per", "label": "period"}, {"label": "n", "units": "deg/d", "title": "mean motion", "value": "1.016328096637615", "name": "n", "sigma": "1.2789E-7"}, {"label": "Q", "title": "aphelion distance", "value": "1.153690886186287", "units": "au", "sigma": "9.6786E-8", "name": "ad"}], "epoch": "2461200.5"}